GLOBALSTAR M035 [-]     
1 25851U 99037A   24002.72033493 -.00000015  00000+0  18211-2 0  9999
2 25851  51.9917 160.1687 0013620 194.4834 262.9834 11.04528497 37532
GLOBALSTAR M032 [-]     
1 25852U 99037B   24002.31868623 -.00000014  00000+0  17061-2 0  9997
2 25852  51.9978  22.9642 0008733 350.2233   9.8396 11.19048268 75240
GLOBALSTAR M051 [-]     
1 25853U 99037C   24003.11307213 -.00000064  00000+0  18475-3 0  9996
2 25853  51.9773 242.0313 0001966  16.0562 344.0310 11.42195272 71720
GLOBALSTAR M030 [-]     
1 25854U 99037D   24002.93057417 -.00000052  00000+0  48484-3 0  9994
2 25854  51.9885  82.3516 0004957 166.4658 193.6292 11.55087533 88756
GLOBALSTAR M048 [-]     
1 25872U 99041A   24002.71014159 -.00000065  00000+0  14016-3 0  9999
2 25872  51.9340 157.4801 0012627 350.0200 106.9959 11.33842412 64695
GLOBALSTAR M026 [-]     
1 25873U 99041B   24002.94445209 -.00000014  00000+0  18356-2 0  9993
2 25873  52.0017 283.2338 0002015  76.6830   2.7809 11.06833349 89662
GLOBALSTAR M043 [-]     
1 25874U 99041C   24002.90835785 -.00000063  00000+0  17092-3 0  9993
2 25874  51.9381 243.4832 0013564 123.3176 321.7241 11.25673783 63049
GLOBALSTAR M028 [-]     
1 25875U 99041D   24002.88964106 -.00000026  00000+0  48028-3 0  9993
2 25875  51.9647 337.2528 0063777 357.9588   2.1005 12.50547739123700
